{
  "norad_id": 68984,
  "name": "CAS500-2 RIDESHARE OBJECT E",
  "history": [
    {
      "epoch": "2026-05-09T20:00:04.000032Z",
      "apogee_km": 596.5184022740996,
      "perigee_km": 592.5272517891071,
      "latitude_deg": -45.224855693171065,
      "longitude_deg": -131.8396629570753,
      "height_km": 610.1952335472405,
      "semi_major_axis_km": 6972.6598270316035,
      "eccentricity": 0.0002862,
      "inclination_deg": 97.7367,
      "raan_deg": 27.9952,
      "arg_perigee_deg": 290.3333,
      "mean_anomaly_deg": 24.1653,
      "mean_motion_rev_day": 14.91094077
    }
  ]
}