CAS500-2 RIDESHARE OBJE*
1 68984U 26100E   26129.83337963 -.00059259  00000+0 -60286-2 0  9991
2 68984  97.7367  27.9952 0002862 290.3333  24.1653 14.91094077  1500
